start=new Date('2022-09-11T00:00:00.000Z').valueOf();
sats=[{"PERIAPSIS":"546.290","FILE":"3567066","EPOCH":"2022-09-10T08:49:01.787520","SEMIMAJOR_AXIS":"6925.340","RCS_SIZE":"LARGE","MEAN_ELEMENT_THEORY":"SGP4","ECCENTRICITY":"0.00013200","EPHEMERIS_TYPE":"0","BSTAR":"-0.00009465900000","PERIOD":"95.592","TLE_LINE1":"1 44758U 19074AX  22253.36738180 -.00001691  00000-0 -94659-4 0  9995","REV_AT_EPOCH":"15582","CENTER_NAME":"EARTH","NORAD_CAT_ID":"44758","COUNTRY_CODE":"US","MEAN_ANOMALY":"283.9296","RA_OF_ASC_NODE":"196.3380","OBJECT_NAME":"STARLINK-1053","MEAN_MOTION":"15.06402951","SITE":"AFETR","OBJECT_ID":"2019-074AX","CLASSIFICATION_TYPE":"U","REF_FRAME":"TEME","TLE_LINE2":"2 44758  53.0547 196.3380 0001320  76.1839 283.9296 15.06402951155827","TIME_SYSTEM":"UTC","LAUNCH_DATE":"2019-11-11","MEAN_MOTION_DDOT":"0.0000000000000","ARG_OF_PERICENTER":"76.1839","GP_ID":"212224094","MEAN_MOTION_DOT":"-0.00001691","INCLINATION":"53.0547","OBJECT_TYPE":"PAYLOAD","DECAY_DATE":null,"ELEMENT_SET_NO":"999","APOAPSIS":"548.119"},{"FILE":"3567798","PERIAPSIS":"546.314","EPOCH":"2022-09-10T14:44:38.129280","SEMIMAJOR_AXIS":"6925.344","ECCENTRICITY":"0.00012920","RCS_SIZE":"LARGE","MEAN_ELEMENT_THEORY":"SGP4","EPHEMERIS_TYPE":"0","REV_AT_EPOCH":"15350","TLE_LINE1":"1 44759U 19074AY  22253.61433020  .00000145  00000-0  28647-4 0  9994","CENTER_NAME":"EARTH","PERIOD":"95.592","BSTAR":"0.00002864700000","NORAD_CAT_ID":"44759","MEAN_MOTION":"15.06401623","COUNTRY_CODE":"US","MEAN_ANOMALY":"270.4440","OBJECT_NAME":"STARLINK-1054","RA_OF_ASC_NODE":"195.1423","CLASSIFICATION_TYPE":"U","SITE":"AFETR","OBJECT_ID":"2019-074AY","REF_FRAME":"TEME","TLE_LINE2":"2 44759  53.0549 195.1423 0001292  89.6697 270.4440 15.06401623153504","TIME_SYSTEM":"UTC","MEAN_MOTION_DDOT":"0.0000000000000","ARG_OF_PERICENTER":"89.6697","GP_ID":"212265733","LAUNCH_DATE":"2019-11-11","MEAN_MOTION_DOT":"0.00000145","INCLINATION":"53.0549","OBJECT_TYPE":"PAYLOAD","DECAY_DATE":null,"ELEMENT_SET_NO":"999","APOAPSIS":"548.103"},{"DECAY_DATE":null,"ELEMENT_SET_NO":"999","APOAPSIS":"548.311","MEAN_MOTION_DOT":"-0.00000428","INCLINATION":"53.0544","OBJECT_TYPE":"PAYLOAD","MEAN_MOTION_DDOT":"0.0000000000000","GP_ID":"212265983","ARG_OF_PERICENTER":"70.5644","LAUNCH_DATE":"2019-11-11","CLASSIFICATION_TYPE":"U","OBJECT_ID":"2019-074AZ","SITE":"AFETR","REF_FRAME":"TEME","TLE_LINE2":"2 44760  53.0544 194.0291 0001583  70.5644 289.5516 15.06399515155903","TIME_SYSTEM":"UTC","MEAN_MOTION":"15.06399515","COUNTRY_CODE":"US","MEAN_ANOMALY":"289.5516","OBJECT_NAME":"STARLINK-1055","RA_OF_ASC_NODE":"194.0291","REV_AT_EPOCH":"15590","TLE_LINE1":"1 44760U 19074AZ  22253.86497420 -.00000428  00000-0 -98654-5 0  9999","CENTER_NAME":"EARTH","BSTAR":"-0.00000986540000","PERIOD":"95.592","NORAD_CAT_ID":"44760","ECCENTRICITY":"0.00015830","MEAN_ELEMENT_THEORY":"SGP4","RCS_SIZE":"LARGE","EPHEMERIS_TYPE":"0","FILE":"3567798","PERIAPSIS":"546.119","EPOCH":"2022-09-10T20:45:33.770880","SEMIMAJOR_AXIS":"6925.350"},{"OBJECT_TYPE":"PAYLOAD","MEAN_MOTION_DOT":"0.00003006","INCLINATION":"53.0555","ELEMENT_SET_NO":"999","APOAPSIS":"548.103","DECAY_DATE":null,"REF_FRAME":"TEME","TIME_SYSTEM":"UTC","TLE_LINE2":"2 44761  53.0555 196.6602 0001269  68.9763 291.1361 15.06396474155812","CLASSIFICATION_TYPE":"U","OBJECT_ID":"2019-074BA","SITE":"AFETR","MEAN_MOTION_DDOT":"0.0000000000000","ARG_OF_PERICENTER":"68.9763","GP_ID":"212225337","LAUNCH_DATE":"2019-11-11","NORAD_CAT_ID":"44761","REV_AT_EPOCH":"15581","TLE_LINE1":"1 44761U 19074BA  22253.27891571  .00003006  00000-0  22064-3 0  9993","CENTER_NAME":"EARTH","PERIOD":"95.592","BSTAR":"0.00022064000000","MEAN_MOTION":"15.06396474","MEAN_ANOMALY":"291.1361","COUNTRY_CODE":"US","RA_OF_ASC_NODE":"196.6602","OBJECT_NAME":"STARLINK-1056","EPOCH":"2022-09-10T06:41:38.317344","SEMIMAJOR_AXIS":"6925.359","FILE":"3567066","PERIAPSIS":"546.346","EPHEMERIS_TYPE":"0","ECCENTRICITY":"0.00012690","MEAN_ELEMENT_THEORY":"SGP4","RCS_SIZE":"LARGE"},{"MEAN_MOTION":"15.06397391","MEAN_ANOMALY":"270.7272","COUNTRY_CODE":"US","RA_OF_ASC_NODE":"177.2456","OBJECT_NAME":"STARLINK-1057","TLE_LINE1":"1 44762U 19074BB  22253.14805814  .00001234  00000-0  10174-3 0  9995","REV_AT_EPOCH":"15623","CENTER_NAME":"EARTH","PERIOD":"95.592","BSTAR":"0.00010174000000","NORAD_CAT_ID":"44762","ECCENTRICITY":"0.00013970","RCS_SIZE":"LARGE","MEAN_ELEMENT_THEORY":"SGP4","EPHEMERIS_TYPE":"0","FILE":"3565856","PERIAPSIS":"546.254","EPOCH":"2022-09-10T03:33:12.223296","SEMIMAJOR_AXIS":"6925.357","DECAY_DATE":null,"ELEMENT_SET_NO":"999","APOAPSIS":"548.189","MEAN_MOTION_DOT":"0.00001234","INCLINATION":"53.0547","OBJECT_TYPE":"PAYLOAD","MEAN_MOTION_DDOT":"0.0000000000000","GP_ID":"212177284","ARG_OF_PERICENTER":"89.3877","LAUNCH_DATE":"2019-11-11","CLASSIFICATION_TYPE":"U","OBJECT_ID":"2019-074BB","SITE":"AFETR","REF_FRAME":"TEME","TLE_LINE2":"2 44762  53.0547 177.2456 0001397  89.3877 270.7272 15.06397391156231","TIME_SYSTEM":"UTC"},{"RA_OF_ASC_NODE":"196.8343","OBJECT_NAME":"STARLINK-1058","MEAN_ANOMALY":"283.8894","COUNTRY_CODE":"US","MEAN_MOTION":"15.06393997","NORAD_CAT_ID":"44763","PERIOD":"95.593","BSTAR":"-0.00003151300000","CENTER_NAME":"EARTH","TLE_LINE1":"1 44763U 19074BC  22253.23373734 -.00000751  00000-0 -31513-4 0  9993","REV_AT_EPOCH":"15580","EPHEMERIS_TYPE":"0","MEAN_ELEMENT_THEORY":"SGP4","RCS_SIZE":"LARGE","ECCENTRICITY":"0.00013030","SEMIMAJOR_AXIS":"6925.367","EPOCH":"2022-09-10T05:36:34.906176","PERIAPSIS":"546.330","FILE":"3567066","APOAPSIS":"548.134","ELEMENT_SET_NO":"999","DECAY_DATE":null,"OBJECT_TYPE":"PAYLOAD","INCLINATION":"53.0537","MEAN_MOTION_DOT":"-0.00000751","LAUNCH_DATE":"2019-11-11","ARG_OF_PERICENTER":"76.2240","GP_ID":"212223845","MEAN_MOTION_DDOT":"0.0000000000000","TLE_LINE2":"2 44763  53.0537 196.8343 0001303  76.2240 283.8894 15.06393997155804","TIME_SYSTEM":"UTC","REF_FRAME":"TEME","SITE":"AFETR","OBJECT_ID":"2019-074BC","CLASSIFICATION_TYPE":"U"},{"RA_OF_ASC_NODE":"176.3334","OBJECT_NAME":"STARLINK-1059","COUNTRY_CODE":"US","MEAN_ANOMALY":"339.5206","MEAN_MOTION":"15.08304815","NORAD_CAT_ID":"44764","PERIOD":"95.471","BSTAR":"0.00104960000000","CENTER_NAME":"EARTH","REV_AT_EPOCH":"15608","TLE_LINE1":"1 44764U 19074BD  22253.21914326  .00016215  00000-0  10496-2 0  9995","EPHEMERIS_TYPE":"0","MEAN_ELEMENT_THEORY":"SGP4","RCS_SIZE":"LARGE","ECCENTRICITY":"0.00016320","SEMIMAJOR_AXIS":"6919.517","EPOCH":"2022-09-10T05:15:33.977664","PERIAPSIS":"540.252","FILE":"3567066","APOAPSIS":"542.511","ELEMENT_SET_NO":"999","DECAY_DATE":null,"OBJECT_TYPE":"PAYLOAD","INCLINATION":"53.0556","MEAN_MOTION_DOT":"0.00016215","LAUNCH_DATE":"2019-11-11","GP_ID":"212225097","ARG_OF_PERICENTER":"20.5849","MEAN_MOTION_DDOT":"0.0000000000000","TIME_SYSTEM":"UTC","TLE_LINE2":"2 44764  53.0556 176.3334 0001632  20.5849 339.5206 15.08304815156081","REF_FRAME":"TEME","OBJECT_ID":"2019-074BD","SITE":"AFETR","CLASSIFICATION_TYPE":"U"},{"NORAD_CAT_ID":"44765","BSTAR":"-0.00003140600000","PERIOD":"95.593","REV_AT_EPOCH":"15608","TLE_LINE1":"1 44765U 19074BE  22253.29549955 -.00000749  00000-0 -31406-4 0  9999","CENTER_NAME":"EARTH","MEAN_ANOMALY":"287.0496","COUNTRY_CODE":"US","RA_OF_ASC_NODE":"176.5780","OBJECT_NAME":"STARLINK-1060","MEAN_MOTION":"15.06393750","EPOCH":"2022-09-10T07:05:31.161120","SEMIMAJOR_AXIS":"6925.368","PERIAPSIS":"546.196","FILE":"3567066","EPHEMERIS_TYPE":"0","RCS_SIZE":"LARGE","MEAN_ELEMENT_THEORY":"SGP4","ECCENTRICITY":"0.00014970","OBJECT_TYPE":"PAYLOAD","MEAN_MOTION_DOT":"-0.00000749","INCLINATION":"53.0542","ELEMENT_SET_NO":"999","APOAPSIS":"548.269","DECAY_DATE":null,"REF_FRAME":"TEME","TLE_LINE2":"2 44765  53.0542 176.5780 0001497  73.0657 287.0496 15.06393750156085","TIME_SYSTEM":"UTC","OBJECT_ID":"2019-074BE","SITE":"AFETR","CLASSIFICATION_TYPE":"U","LAUNCH_DATE":"2019-11-11","MEAN_MOTION_DDOT":"0.0000000000000","GP_ID":"212224838","ARG_OF_PERICENTER":"73.0657"},{"EPHEMERIS_TYPE":"0","MEAN_ELEMENT_THEORY":"SGP4","RCS_SIZE":"LARGE","ECCENTRICITY":"0.00012550","SEMIMAJOR_AXIS":"6925.361","EPOCH":"2022-09-10T08:38:24.350784","PERIAPSIS":"546.357","FILE":"3567066","OBJECT_NAME":"STARLINK-1061","RA_OF_ASC_NODE":"196.2981","MEAN_ANOMALY":"286.9097","COUNTRY_CODE":"US","MEAN_MOTION":"15.06395814","NORAD_CAT_ID":"44766","BSTAR":"-0.00002073100000","PERIOD":"95.592","CENTER_NAME":"EARTH","REV_AT_EPOCH":"15582","TLE_LINE1":"1 44766U 19074BF  22253.36000406 -.00000590  00000-0 -20731-4 0  9994","LAUNCH_DATE":"2019-11-11","GP_ID":"212224095","ARG_OF_PERICENTER":"73.2030","MEAN_MOTION_DDOT":"0.0000000000000","TLE_LINE2":"2 44766  53.0545 196.2981 0001255  73.2030 286.9097 15.06395814155829","TIME_SYSTEM":"UTC","REF_FRAME":"TEME","OBJECT_ID":"2019-074BF","SITE":"AFETR","CLASSIFICATION_TYPE":"U","APOAPSIS":"548.096","ELEMENT_SET_NO":"999","DECAY_DATE":null,"OBJECT_TYPE":"PAYLOAD","INCLINATION":"53.0545","MEAN_MOTION_DOT":"-0.00000590"},{"EPOCH":"2022-09-10T06:50:53.763936","SEMIMAJOR_AXIS":"6925.386","FILE":"3567066","PERIAPSIS":"546.240","EPHEMERIS_TYPE":"0","ECCENTRICITY":"0.00014600","MEAN_ELEMENT_THEORY":"SGP4","RCS_SIZE":"LARGE","NORAD_CAT_ID":"44767","TLE_LINE1":"1 44767U 19074BG  22253.28534449  .00000852  00000-0  76114-4 0  9990","REV_AT_EPOCH":"15581","CENTER_NAME":"EARTH","BSTAR":"0.00007611400000","PERIOD":"95.593","MEAN_MOTION":"15.06387658","COUNTRY_CODE":"US","MEAN_ANOMALY":"279.8836","OBJECT_NAME":"STARLINK-1062","RA_OF_ASC_NODE":"196.6192","REF_FRAME":"TEME","TLE_LINE2":"2 44767  53.0542 196.6192 0001460  80.2318 279.8836 15.06387658155818","TIME_SYSTEM":"UTC","CLASSIFICATION_TYPE":"U","SITE":"AFETR","OBJECT_ID":"2019-074BG","MEAN_MOTION_DDOT":"0.0000000000000","ARG_OF_PERICENTER":"80.2318","GP_ID":"212224346","LAUNCH_DATE":"2019-11-11","OBJECT_TYPE":"PAYLOAD","MEAN_MOTION_DOT":"0.00000852","INCLINATION":"53.0542","ELEMENT_SET_NO":"999","APOAPSIS":"548.262","DECAY_DATE":null}];
